[{"OBJECT_NAME":"STARLINK-2107","OBJECT_ID":"2021-017B","EPOCH":"2026-03-09T10:39:47.631456","MEAN_MOTION":15.30195814,"ECCENTRICITY":0.00013756,"INCLINATION":53.1583,"RA_OF_ASC_NODE":127.8359,"ARG_OF_PERICENTER":93.2955,"MEAN_ANOMALY":266.8204,"EPHEMERIS_TYPE":0,"CLASSIFICATION_TYPE":"U","NORAD_CAT_ID":47723,"ELEMENT_SET_NO":999,"REV_AT_EPOCH":27890,"BSTAR":3.8766859e-5,"MEAN_MOTION_DOT":7.89e-6,"MEAN_MOTION_DDOT":0},{"OBJECT_NAME":"OBJECT F","OBJECT_ID":"2023-072F","EPOCH":"2026-03-09T23:31:37.259904","MEAN_MOTION":15.29470958,"ECCENTRICITY":0.00062878,"INCLINATION":97.5173,"RA_OF_ASC_NODE":265.798,"ARG_OF_PERICENTER":19.0017,"MEAN_ANOMALY":341.1456,"EPHEMERIS_TYPE":0,"CLASSIFICATION_TYPE":"U","NORAD_CAT_ID":56748,"ELEMENT_SET_NO":999,"REV_AT_EPOCH":15460,"BSTAR":0.00043416252,"MEAN_MOTION_DOT":0.00012341,"MEAN_MOTION_DDOT":0}]
